{
  "type": "FeatureCollection",
  "features": [
    {
      "type": "Feature",
      "properties": {
        "norad_id": 37921,
        "name": "FENGYUN 1C DEB",
        "group": "fengyun-1c-debris",
        "lat": -68.9983129429292,
        "lon": -176.88034741684524,
        "alt_km": 971.7823644743094,
        "timestamp": "2025-12-12T11:38:31.701584+00:00",
        "meta_object_name": "FENGYUN 1C DEB",
        "meta_object_id": "1999-025ENW",
        "meta_epoch": "2025-12-10T22:18:18.133056",
        "meta_mean_motion": 13.9515476,
        "meta_eccentricity": 0.0084315,
        "meta_inclination": 99.0227,
        "meta_ra_of_asc_node": 26.047,
        "meta_arg_of_pericenter": 103.6067,
        "meta_mean_anomaly": 257.4502,
        "meta_ephemeris_type": 0,
        "meta_classification_type": "U",
        "meta_norad_cat_id": 37921,
        "meta_element_set_no": 999,
        "meta_rev_at_epoch": 63122,
        "meta_bstar": 0.0002137,
        "meta_mean_motion_dot": 2.54e-06,
        "meta_mean_motion_ddot": 0,
        "tle_line1": "1 37921U 99025ENW 25344.92937654  .00000254  00000+0  21370-3 0  9996",
        "tle_line2": "2 37921  99.0227  26.0470 0084315 103.6067 257.4502 13.95154760631226"
      },
      "geometry": {
        "type": "Point",
        "coordinates": [
          -176.88034741684524,
          -68.9983129429292
        ]
      }
    },
    {
      "type": "Feature",
      "properties": {
        "norad_id": 37925,
        "name": "FENGYUN 1C DEB",
        "group": "fengyun-1c-debris",
        "lat": -55.868935020139844,
        "lon": -130.74135989593236,
        "alt_km": 604.8564646393197,
        "timestamp": "2025-12-12T11:38:31.701593+00:00",
        "meta_object_name": "FENGYUN 1C DEB",
        "meta_object_id": "1999-025EPA",
        "meta_epoch": "2025-12-03T08:51:08.944992",
        "meta_mean_motion": 14.79858027,
        "meta_eccentricity": 0.0057842,
        "meta_inclination": 99.0872,
        "meta_ra_of_asc_node": 205.2959,
        "meta_arg_of_pericenter": 11.9768,
        "meta_mean_anomaly": 348.28,
        "meta_ephemeris_type": 0,
        "meta_classification_type": "U",
        "meta_norad_cat_id": 37925,
        "meta_element_set_no": 999,
        "meta_rev_at_epoch": 65544,
        "meta_bstar": 0.0022468503,
        "meta_mean_motion_dot": 0.00017399,
        "meta_mean_motion_ddot": 0,
        "tle_line1": "1 37925U 99025EPA 25337.36885353  .00017399  00000+0  22469-2 0  9995",
        "tle_line2": "2 37925  99.0872 205.2959 0057842  11.9768 348.2800 14.79858027655443"
      },
      "geometry": {
        "type": "Point",
        "coordinates": [
          -130.74135989593236,
          -55.868935020139844
        ]
      }
    },
    {
      "type": "Feature",
      "properties": {
        "norad_id": 37926,
        "name": "FENGYUN 1C DEB",
        "group": "fengyun-1c-debris",
        "lat": -23.746962041030773,
        "lon": -134.2166519668953,
        "alt_km": 779.6757362184371,
        "timestamp": "2025-12-12T11:38:31.701603+00:00",
        "meta_object_name": "FENGYUN 1C DEB",
        "meta_object_id": "1999-025EPB",
        "meta_epoch": "2025-12-10T15:34:14.229984",
        "meta_mean_motion": 14.24195204,
        "meta_eccentricity": 0.005394,
        "meta_inclination": 98.723,
        "meta_ra_of_asc_node": 47.834,
        "meta_arg_of_pericenter": 227.3034,
        "meta_mean_anomaly": 287.1053,
        "meta_ephemeris_type": 0,
        "meta_classification_type": "U",
        "meta_norad_cat_id": 37926,
        "meta_element_set_no": 999,
        "meta_rev_at_epoch": 74240,
        "meta_bstar": 0.0024435,
        "meta_mean_motion_dot": 5.676e-05,
        "meta_mean_motion_ddot": 0,
        "tle_line1": "1 37926U 99025EPB 25344.64877581  .00005676  00000+0  24435-2 0  9999",
        "tle_line2": "2 37926  98.7230  47.8340 0053940 227.3034 287.1053 14.24195204742401"
      },
      "geometry": {
        "type": "Point",
        "coordinates": [
          -134.2166519668953,
          -23.746962041030773
        ]
      }
    },
    {
      "type": "Feature",
      "properties": {
        "norad_id": 37927,
        "name": "FENGYUN 1C DEB",
        "group": "fengyun-1c-debris",
        "lat": 51.72459600462285,
        "lon": -38.52042998637253,
        "alt_km": 655.4416252275341,
        "timestamp": "2025-12-12T11:38:31.701613+00:00",
        "meta_object_name": "FENGYUN 1C DEB",
        "meta_object_id": "1999-025EPC",
        "meta_epoch": "2025-12-08T15:40:42.564288",
        "meta_mean_motion": 14.71415555,
        "meta_eccentricity": 0.0007916,
        "meta_inclination": 98.8087,
        "meta_ra_of_asc_node": 126.0022,
        "meta_arg_of_pericenter": 283.7555,
        "meta_mean_anomaly": 76.2768,
        "meta_ephemeris_type": 0,
        "meta_classification_type": "U",
        "meta_norad_cat_id": 37927,
        "meta_element_set_no": 999,
        "meta_rev_at_epoch": 65056,
        "meta_bstar": 0.0054829,
        "meta_mean_motion_dot": 0.00034083,
        "meta_mean_motion_ddot": 0,
        "tle_line1": "1 37927U 99025EPC 25342.65327042  .00034083  00000+0  54829-2 0  9995",
        "tle_line2": "2 37927  98.8087 126.0022 0007916 283.7555  76.2768 14.71415555650567"
      },
      "geometry": {
        "type": "Point",
        "coordinates": [
          -38.52042998637253,
          51.72459600462285
        ]
      }
    },
    {
      "type": "Feature",
      "properties": {
        "norad_id": 37928,
        "name": "FENGYUN 1C DEB",
        "group": "fengyun-1c-debris",
        "lat": 77.22407587398543,
        "lon": 84.88106101056488,
        "alt_km": 738.7325171618468,
        "timestamp": "2025-12-12T11:38:31.701623+00:00",
        "meta_object_name": "FENGYUN 1C DEB",
        "meta_object_id": "1999-025EPD",
        "meta_epoch": "2025-12-05T22:06:55.639584",
        "meta_mean_motion": 14.37064476,
        "meta_eccentricity": 0.0073466,
        "meta_inclination": 98.9156,
        "meta_ra_of_asc_node": 214.2722,
        "meta_arg_of_pericenter": 52.9241,
        "meta_mean_anomaly": 307.8631,
        "meta_ephemeris_type": 0,
        "meta_classification_type": "U",
        "meta_norad_cat_id": 37928,
        "meta_element_set_no": 999,
        "meta_rev_at_epoch": 81094,
        "meta_bstar": 0.0011316154,
        "meta_mean_motion_dot": 3.419e-05,
        "meta_mean_motion_ddot": 0,
        "tle_line1": "1 37928U 99025EPD 25339.92147731  .00003419  00000+0  11316-2 0  9990",
        "tle_line2": "2 37928  98.9156 214.2722 0073466  52.9241 307.8631 14.37064476810940"
      },
      "geometry": {
        "type": "Point",
        "coordinates": [
          84.88106101056488,
          77.22407587398543
        ]
      }
    },
    {
      "type": "Feature",
      "properties": {
        "norad_id": 38116,
        "name": "FENGYUN 1C DEB",
        "group": "fengyun-1c-debris",
        "lat": 43.03376031724109,
        "lon": -146.54469242925356,
        "alt_km": 780.566598676658,
        "timestamp": "2025-12-12T11:38:31.701632+00:00",
        "meta_object_name": "FENGYUN 1C DEB",
        "meta_object_id": "1999-025EPM",
        "meta_epoch": "2025-12-08T08:47:29.846688",
        "meta_mean_motion": 14.17004131,
        "meta_eccentricity": 0.00723814,
        "meta_inclination": 98.7133,
        "meta_ra_of_asc_node": 21.1884,
        "meta_arg_of_pericenter": 159.0546,
        "meta_mean_anomaly": 218.3187,
        "meta_ephemeris_type": 0,
        "meta_classification_type": "U",
        "meta_norad_cat_id": 38116,
        "meta_element_set_no": 999,
        "meta_rev_at_epoch": 64423,
        "meta_bstar": 0.00087094708,
        "meta_mean_motion_dot": 1.753e-05,
        "meta_mean_motion_ddot": 0,
        "tle_line1": "1 38116U 99025EPM 25342.36631767  .00001753  00000+0  87095-3 0  9996",
        "tle_line2": "2 38116  98.7133  21.1884 0072381 159.0546 218.3187 14.17004131644238"
      },
      "geometry": {
        "type": "Point",
        "coordinates": [
          -146.54469242925356,
          43.03376031724109
        ]
      }
    },
    {
      "type": "Feature",
      "properties": {
        "norad_id": 38121,
        "name": "FENGYUN 1C DEB",
        "group": "fengyun-1c-debris",
        "lat": 41.1471787230765,
        "lon": 129.88670632705387,
        "alt_km": 804.0428200679698,
        "timestamp": "2025-12-12T11:38:31.701642+00:00",
        "meta_object_name": "FENGYUN 1C DEB",
        "meta_object_id": "1999-025EPS",
        "meta_epoch": "2025-12-11T05:02:30.561216",
        "meta_mean_motion": 14.21760702,
        "meta_eccentricity": 0.02066646,
        "meta_inclination": 99.1144,
        "meta_ra_of_asc_node": 136.6331,
        "meta_arg_of_pericenter": 132.0758,
        "meta_mean_anomaly": 229.8203,
        "meta_ephemeris_type": 0,
        "meta_classification_type": "U",
        "meta_norad_cat_id": 38121,
        "meta_element_set_no": 999,
        "meta_rev_at_epoch": 83898,
        "meta_bstar": 0.0019163195,
        "meta_mean_motion_dot": 5.193e-05,
        "meta_mean_motion_ddot": 0,
        "tle_line1": "1 38121U 99025EPS 25345.21007594  .00005193  00000+0  19163-2 0  9996",
        "tle_line2": "2 38121  99.1144 136.6331 0206664 132.0758 229.8203 14.21760702838980"
      },
      "geometry": {
        "type": "Point",
        "coordinates": [
          129.88670632705387,
          41.1471787230765
        ]
      }
    }
  ]
}